STARLINK-31774          
1 59622U 24080X   26068.31303101 -.00000576  00000+0 -11386-4 0  9994
2 59622  43.0047  36.6914 0001499 262.6792  97.3889 15.27576945104516
FLOCK 4G-21             
1 62651U 25009AU  26068.19487675  .00013648  00000+0  49619-3 0  9998
2 62651  97.4032 151.1274 0000465 329.5782  30.5431 15.28381075 63677
